NORAD_CAT_ID,OBJECT_NAME,OBJECT_TYPE,EPOCH,MEAN_MOTION,ECCENTRICITY,INCLINATION,RA_OF_ASC_NODE,ARG_OF_PERICENTER,MEAN_ANOMALY,BSTAR,MEAN_MOTION_DOT,MEAN_MOTION_DDOT,TLE_LINE0,TLE_LINE1,TLE_LINE2,SEMIMAJOR_AXIS,PERIOD,APOGEE,PERIGEE,DECAYED
50841.0,STARLINK-3300,PAYLOAD,2022-04-10 06:00:02,15.08840882,0.0002136,53.2135,116.1232,37.7425,71.13,-0.0013962,-0.00022441,0.0,0 STARLINK-3300,1 50841U 22001AQ  22100.25002315 -.00022441  00000-0 -13962-2 0  9994,2 50841  53.2135 116.1232 0002136  37.7425  71.1300 15.08840882 15760,6917.878000000002,95.437,541.22,538.265,0.0
50841.0,STARLINK-3300,PAYLOAD,2022-04-10 14:00:01,15.0883191,0.0002246,53.2133,114.6272,34.6535,85.7372,0.0006147,9.506e-05,0.0,0 STARLINK-3300,1 50841U 22001AQ  22100.58334491  .00009506  00000-0  61470-3 0  9996,2 50841  53.2133 114.6272 0002246  34.6535  85.7372 15.08831910  3607,6917.905,95.438,541.3240000000002,538.216,0.0
50841.0,STARLINK-3300,PAYLOAD,2022-04-10 20:00:01,15.08826403,0.0002076,53.2136,113.5034,38.7068,0.3889,0.0020713,0.00032819,0.0,0 STARLINK-3300,1 50841U 22001AQ  22100.83334491  .00032819  00000-0  20713-2 0  9991,2 50841  53.2136 113.5034 0002076  38.7068   0.3889 15.08826403 15858,6917.922,95.438,541.2230000000002,538.351,0.0
50841.0,STARLINK-3300,PAYLOAD,2022-04-10 22:00:00,15.08823122,0.0002071,53.2134,113.129,39.4548,92.5404,0.003065,0.00048808,0.0,0 STARLINK-3300,1 50841U 22001AQ  22100.91667824  .00048808  00000-0  30650-2 0  9995,2 50841  53.2134 113.1290 0002071  39.4548  92.5404 15.08823122  3603,6917.932,95.439,541.23,538.364,0.0
50841.0,STARLINK-3300,PAYLOAD,2022-04-11 12:00:00,15.08805982,0.0002283,53.2136,110.5122,33.8149,28.4789,0.0027921,0.00044388,0.0,0 STARLINK-3300,1 50841U 22001AQ  22101.50001157  .00044388  00000-0  27921-2 0  9998,2 50841  53.2136 110.5122 0002283  33.8149  28.4789 15.08805982 15959,6917.984,95.44,541.429,538.27,0.0
50841.0,STARLINK-3300,PAYLOAD,2022-04-11 14:00:01,15.08829931,0.0002278,53.2135,110.1376,34.1783,121.0018,8.884700000000001e-05,1.126e-05,0.0,0 STARLINK-3300,1 50841U 22001AQ  22101.58334491  .00001126  00000-0  88847-4 0  9995,2 50841  53.2135 110.1376 0002278  34.1783 121.0018 15.08829931  3601,6917.911,95.438,541.352,538.2,0.0
50841.0,STARLINK-3300,PAYLOAD,2022-04-11 22:00:00,15.0881354,0.0002113,53.2137,108.6395,38.619,128.1509,0.002668,0.00042399,0.0,0 STARLINK-3300,1 50841U 22001AQ  22101.91667824  .00042399  00000-0  26680-2 0  9993,2 50841  53.2137 108.6395 0002113  38.6190 128.1509 15.08813540  3595,6917.9609999999975,95.439,541.288,538.365,0.0
50841.0,STARLINK-3300,PAYLOAD,2022-04-12 04:00:00,15.08853058,0.000224,53.214,107.5182,38.8032,46.6448,-0.0017625,-0.0002824,0.0,0 STARLINK-3300,1 50841U 22001AQ  22102.16667824 -.00028240  00000-0 -17625-2 0  9991,2 50841  53.2140 107.5182 0002240  38.8032  46.6448 15.08853058 16058,6917.84,95.437,541.255,538.156,0.0
50841.0,STARLINK-3300,PAYLOAD,2022-04-12 14:00:01,15.08849418,0.0002367,53.2138,105.648,36.0493,153.89,-0.00060771,-9.95e-05,0.0,0 STARLINK-3300,1 50841U 22001AQ  22102.58334491 -.00009950  00000-0 -60771-3 0  9996,2 50841  53.2138 105.6480 0002367  36.0493 153.8900 15.08849418  3613,6917.852,95.437,541.354,538.0790000000002,0.0
50841.0,STARLINK-3300,PAYLOAD,2022-04-12 20:00:01,15.08831245,0.0002181,53.2141,104.5243,38.6159,70.0333,0.0014479,0.00022825,0.0,0 STARLINK-3300,1 50841U 22001AQ  22102.83334491  .00022825  00000-0  14479-2 0  9991,2 50841  53.2141 104.5243 0002181  38.6159  70.0333 15.08831245 16155,6917.906999999997,95.438,541.281,538.263,0.0
50841.0,STARLINK-3300,PAYLOAD,2022-04-12 22:00:00,15.08829854,0.0002202,53.2141,104.1499,40.6664,160.8812,0.0024929,0.00039599,0.0,0 STARLINK-3300,1 50841U 22001AQ  22102.91667824  .00039599  00000-0  24929-2 0  9996,2 50841  53.2141 104.1499 0002202  40.6664 160.8812 15.08829854  3566,6917.911,95.438,541.3,538.253,0.0
50841.0,STARLINK-3300,PAYLOAD,2022-04-13 14:00:03,15.08876551,0.000236,53.214,101.158,36.9725,187.9113,-0.0038778,-0.00061541,0.0,0 STARLINK-3300,1 50841U 22001AQ  22103.58336806 -.00061541  00000-0 -38778-2 0  9994,2 50841  53.2140 101.1580 0002360  36.9725 187.9113 15.08876551  3564,6917.769,95.435,541.266,538.001,0.0
50841.0,STARLINK-3300,PAYLOAD,2022-04-13 22:00:00,15.08821429,0.000217,53.2142,99.6601,40.5151,195.86,0.0025187,0.00040005,0.0,0 STARLINK-3300,1 50841U 22001AQ  22103.91667824  .00040005  00000-0  25187-2 0  9998,2 50841  53.2142  99.6601 0002170  40.5151 195.8600 15.08821429 16325,6917.937,95.439,541.303,538.3009999999998,0.0
50841.0,STARLINK-3300,PAYLOAD,2022-04-14 14:00:01,15.08871359,0.0002305,53.214,96.6684,36.7281,222.8264,-0.0046783,-0.00074046,0.0,0 STARLINK-3300,1 50841U 22001AQ  22104.58334491 -.00074046  00000-0 -46783-2 0  9992,2 50841  53.2140  96.6684 0002305  36.7281 222.8264 15.08871359 16427,6917.785,95.436,541.244,538.055,0.0
50841.0,STARLINK-3300,PAYLOAD,2022-04-14 22:00:00,15.08808713,0.0002107,53.2141,95.1704,40.3184,230.845,0.0023997,0.00038078,0.0,0 STARLINK-3300,1 50841U 22001AQ  22104.91667824  .00038078  00000-0  23997-2 0  9993,2 50841  53.2141  95.1704 0002107  40.3184 230.8450 15.08808713  3604,6917.976,95.44,541.299,538.383,0.0
50841.0,STARLINK-3300,PAYLOAD,2022-04-15 06:00:00,15.08837104,0.00023,53.2141,93.6757,38.2029,244.5441,6.201e-05,6.99e-06,0.0,0 STARLINK-3300,1 50841U 22001AQ  22105.25001157  .00000699  00000-0  62010-4 0  9991,2 50841  53.2141  93.6757 0002300  38.2029 244.5441 15.08837104 16527,6917.889,95.438,541.345,538.163,0.0
50841.0,STARLINK-3300,PAYLOAD,2022-04-15 14:00:01,15.08861784,0.0002255,53.2138,92.1787,37.9756,256.3588,-0.0014718,-0.0002365,0.0,0 STARLINK-3300,1 50841U 22001AQ  22105.58334491 -.00023650  00000-0 -14718-2 0  9991,2 50841  53.2138  92.1787 0002255  37.9756 256.3588 15.08861784  3599,6917.814,95.436,541.239,538.119,0.0
50841.0,STARLINK-3300,PAYLOAD,2022-04-15 22:00:00,15.08845889,0.0002082,53.214,90.6809,42.5004,263.4391,0.0010114,0.00015848,0.0,0 STARLINK-3300,1 50841U 22001AQ  22105.91667824  .00015848  00000-0  10114-2 0  9991,2 50841  53.2140  90.6809 0002082  42.5004 263.4391 15.08845889  3584,6917.861999999999,95.437,541.168,538.2869999999998,0.0
50841.0,STARLINK-3300,PAYLOAD,2022-04-16 14:00:01,15.08821905,0.0002149,53.2136,87.6891,35.384,293.7382,-0.0021295,-0.00034004,0.0,0 STARLINK-3300,1 50841U 22001AQ  22106.58334491 -.00034004  00000-0 -21295-2 0  9995,2 50841  53.2136  87.6891 0002149  35.3840 293.7382 15.08821905 16727,6917.936,95.439,541.2869999999998,538.314,0.0
50841.0,STARLINK-3300,PAYLOAD,2022-04-16 22:00:01,15.08797251,0.0002026,53.2139,86.1915,40.6878,300.0548,0.0020351,0.00032212,0.0,0 STARLINK-3300,1 50841U 22001AQ  22106.91668981  .00032212  00000-0  20351-2 0  9995,2 50841  53.2139  86.1915 0002026  40.6878 300.0548 15.08797251  3598,6918.011,95.44,541.278,538.474,0.0
50841.0,STARLINK-3300,PAYLOAD,2022-04-17 06:00:00,15.0880796,0.0002258,53.214,84.697,37.8033,314.4346,6.4769e-05,7.42e-06,0.0,0 STARLINK-3300,1 50841U 22001AQ  22107.25001157  .00000742  00000-0  64769-4 0  9995,2 50841  53.2140  84.6970 0002258  37.8033 314.4346 15.08807960 16826,6917.978,95.44,541.405,538.281,0.0
50841.0,STARLINK-3300,PAYLOAD,2022-04-17 14:00:01,15.08833742,0.0002209,53.2138,83.1997,37.4897,326.3055,-0.0019625,-0.00031382,0.0,0 STARLINK-3300,1 50841U 22001AQ  22107.58334491 -.00031382  00000-0 -19625-2 0  9996,2 50841  53.2138  83.1997 0002209  37.4897 326.3055 15.08833742  3615,6917.9,95.438,541.293,538.236,0.0
50841.0,STARLINK-3300,PAYLOAD,2022-04-17 22:00:00,15.08817811,0.0002117,53.2143,81.7025,42.6673,332.7047,0.0018667,0.00029528,0.0,0 STARLINK-3300,1 50841U 22001AQ  22107.91667824  .00029528  00000-0  18667-2 0  9994,2 50841  53.2143  81.7025 0002117  42.6673 332.7047 15.08817811  3571,6917.948,95.439,541.278,538.349,0.0
50841.0,STARLINK-3300,PAYLOAD,2022-04-18 08:00:01,15.08810469,0.000235,53.2145,79.834,38.3846,81.4715,0.0029344,0.00046686,0.0,0 STARLINK-3300,1 50841U 22001AQ  22108.33334491  .00046686  00000-0  29344-2 0  9990,2 50841  53.2145  79.8340 0002350  38.3846  81.4715 15.08810469 16985,6917.971,95.439,541.461,538.21,0.0
50841.0,STARLINK-3300,PAYLOAD,2022-04-18 14:00:01,15.08854733,0.0002288,53.2144,78.7104,39.7243,358.8131,-0.001657,-0.00026574,0.0,0 STARLINK-3300,1 50841U 22001AQ  22108.58334491 -.00026574  00000-0 -16570-2 0  9990,2 50841  53.2144  78.7104 0002288  39.7243 358.8131 15.08854733  3606,6917.835,95.437,541.283,538.118,0.0
50841.0,STARLINK-3300,PAYLOAD,2022-04-18 20:00:01,15.08825306,0.0002203,53.2146,77.5871,43.5497,273.6959,0.0031893,0.00050816,0.0,0 STARLINK-3300,1 50841U 22001AQ  22108.83334491  .00050816  00000-0  31893-2 0  9997,2 50841  53.2146  77.5871 0002203  43.5497 273.6959 15.08825306 17068,6917.925,95.438,541.314,538.266,0.0
50841.0,STARLINK-3300,PAYLOAD,2022-04-18 22:00:00,15.08844763,0.0002226,53.2148,77.2132,44.3965,5.7416,0.0016333,0.00025805,0.0,0 STARLINK-3300,1 50841U 22001AQ  22108.91667824  .00025805  00000-0  16333-2 0  9997,2 50841  53.2148  77.2132 0002226  44.3965   5.7416 15.08844763  3606,6917.866,95.437,541.271,538.191,0.0
50841.0,STARLINK-3300,PAYLOAD,2022-04-19 14:00:01,15.08878529,0.0002308,53.2152,74.2211,40.5077,32.8587,-0.003886,-0.00061672,0.0,0 STARLINK-3300,1 50841U 22001AQ  22109.58334491 -.00061672  00000-0 -38860-2 0  9995,2 50841  53.2152  74.2211 0002308  40.5077  32.8587 15.08878529 17173,6917.763000000001,95.435,541.224,538.031,0.0
50841.0,STARLINK-3300,PAYLOAD,2022-04-20 06:00:00,15.08842167,0.0002387,53.2157,71.2295,39.4442,57.1498,-0.00069764,-0.00011375,0.0,0 STARLINK-3300,1 50841U 22001AQ  22110.25001157 -.00011375  00000-0 -69764-3 0  9994,2 50841  53.2157  71.2295 0002387  39.4442  57.1498 15.08842167 17278,6917.874,95.437,541.39,538.087,0.0
50841.0,STARLINK-3300,PAYLOAD,2022-04-20 14:00:01,15.08849087,0.0002239,53.2159,69.732,39.5093,68.6746,-0.0014261,-0.00022919,0.0,0 STARLINK-3300,1 50841U 22001AQ  22110.58334491 -.00022919  00000-0 -14261-2 0  9997,2 50841  53.2159  69.7320 0002239  39.5093  68.6746 15.08849087  3603,6917.853,95.437,541.2669999999998,538.169,0.0
